line1,line2,validFromUtcTime
1 00000U 00000E   26001.00000000  .00000000  00000-0  27772-4 0    01,2 00000  88.8960 135.3350 0009806 269.5671 187.8318 13.55232198    05,2026-01-01T00:00:00Z
1 00000U 00000E   26002.00000000  .00000000  00000-0  27772-4 0    02,2 00000  88.8960 135.2227 0009806 266.6574  26.6662 13.55232236    02,2026-01-02T00:00:00Z
